{"features": [{"geometry": {"coordinates": [[[10.1, 78.1], [10.1, 78.2], [10.2, 78.2], [10.2, 78.1], [10.1, 78.1]]], "type": "Polygon"}, "properties": {"description": "Synthetic demo zone for unit tests only. NOT a real restricted area.", "name": "Demo Restricted Zone A", "risk_level": "HIGH", "source": "SYNTHETIC-DEMO-v0.1", "type": "restricted", "version": "0.1.0"}, "type": "Feature"}, {"geometry": {"coordinates": [[[10.5, 78.5], [10.5, 78.6], [10.6, 78.6], [10.6, 78.5], [10.5, 78.5]]], "type": "Polygon"}, "properties": {"description": "Synthetic demo forest for distance tests only.", "name": "Demo Forest B", "risk_level": "MEDIUM", "source": "SYNTHETIC-DEMO-v0.1", "type": "forest", "version": "0.1.0"}, "type": "Feature"}], "metadata": {"disclaimer": "SYNTHETIC demo data only. Not authoritative.", "version": "0.1.0"}, "type": "FeatureCollection"}
